{
  "type": "FeatureCollection",
  "features": [
    {
      "type": "Feature",
      "properties": {
        "norad_id": 30342,
        "name": "FENGYUN 1C DEB",
        "group": "fengyun-1c-debris",
        "lat": -70.31613619955128,
        "lon": -148.03592929102825,
        "alt_km": 1085.652248627549,
        "timestamp": "2025-12-27T03:58:44.427412+00:00",
        "meta_object_name": "FENGYUN 1C DEB",
        "meta_object_id": "1999-025ABD",
        "meta_epoch": "2025-12-26T11:11:50.638848",
        "meta_mean_motion": 13.80063115,
        "meta_eccentricity": 0.0168252,
        "meta_inclination": 100.1959,
        "meta_ra_of_asc_node": 181.0078,
        "meta_arg_of_pericenter": 87.4042,
        "meta_mean_anomaly": 328.1099,
        "meta_ephemeris_type": 0,
        "meta_classification_type": "U",
        "meta_norad_cat_id": 30342,
        "meta_element_set_no": 999,
        "meta_rev_at_epoch": 95078,
        "meta_bstar": 0.00060882,
        "meta_mean_motion_dot": 6.54e-06,
        "meta_mean_motion_ddot": 0,
        "tle_line1": "1 30342U 99025ABD 25360.46655832  .00000654  00000+0  60882-3 0  9993",
        "tle_line2": "2 30342 100.1959 181.0078 0168252  87.4042 328.1099 13.80063115950782"
      },
      "geometry": {
        "type": "Point",
        "coordinates": [
          -148.03592929102825,
          -70.31613619955128
        ]
      }
    },
    {
      "type": "Feature",
      "properties": {
        "norad_id": 30344,
        "name": "FENGYUN 1C DEB",
        "group": "fengyun-1c-debris",
        "lat": 40.53889595125286,
        "lon": -88.43284124775363,
        "alt_km": 713.4333190412453,
        "timestamp": "2025-12-27T03:58:44.427421+00:00",
        "meta_object_name": "FENGYUN 1C DEB",
        "meta_object_id": "1999-025ABF",
        "meta_epoch": "2025-12-26T04:19:37.050816",
        "meta_mean_motion": 14.51993284,
        "meta_eccentricity": 0.00067704,
        "meta_inclination": 98.8185,
        "meta_ra_of_asc_node": 82.9033,
        "meta_arg_of_pericenter": 82.2349,
        "meta_mean_anomaly": 308.0429,
        "meta_ephemeris_type": 0,
        "meta_classification_type": "U",
        "meta_norad_cat_id": 30344,
        "meta_element_set_no": 999,
        "meta_rev_at_epoch": 98272,
        "meta_bstar": 0.002205306,
        "meta_mean_motion_dot": 8.871e-05,
        "meta_mean_motion_ddot": 0,
        "tle_line1": "1 30344U 99025ABF 25360.18028994  .00008871  00000+0  22053-2 0  9993",
        "tle_line2": "2 30344  98.8185  82.9033 0006770  82.2349 308.0429 14.51993284982728"
      },
      "geometry": {
        "type": "Point",
        "coordinates": [
          -88.43284124775363,
          40.53889595125286
        ]
      }
    },
    {
      "type": "Feature",
      "properties": {
        "norad_id": 30345,
        "name": "FENGYUN 1C DEB",
        "group": "fengyun-1c-debris",
        "lat": 18.89224377078697,
        "lon": 58.093121861504656,
        "alt_km": 765.5676261949984,
        "timestamp": "2025-12-27T03:58:44.427430+00:00",
        "meta_object_name": "FENGYUN 1C DEB",
        "meta_object_id": "1999-025ABG",
        "meta_epoch": "2025-12-26T14:33:58.516128",
        "meta_mean_motion": 14.41834589,
        "meta_eccentricity": 0.0018188,
        "meta_inclination": 98.9195,
        "meta_ra_of_asc_node": 60.5905,
        "meta_arg_of_pericenter": 203.5465,
        "meta_mean_anomaly": 156.4892,
        "meta_ephemeris_type": 0,
        "meta_classification_type": "U",
        "meta_norad_cat_id": 30345,
        "meta_element_set_no": 999,
        "meta_rev_at_epoch": 97973,
        "meta_bstar": 0.0020976,
        "meta_mean_motion_dot": 6.83e-05,
        "meta_mean_motion_ddot": 0,
        "tle_line1": "1 30345U 99025ABG 25360.60692727  .00006830  00000+0  20976-2 0  9997",
        "tle_line2": "2 30345  98.9195  60.5905 0018188 203.5465 156.4892 14.41834589979731"
      },
      "geometry": {
        "type": "Point",
        "coordinates": [
          58.093121861504656,
          18.89224377078697
        ]
      }
    },
    {
      "type": "Feature",
      "properties": {
        "norad_id": 30346,
        "name": "FENGYUN 1C DEB",
        "group": "fengyun-1c-debris",
        "lat": 47.12207501449143,
        "lon": 88.522381903128,
        "alt_km": 758.8295945761065,
        "timestamp": "2025-12-27T03:58:44.427439+00:00",
        "meta_object_name": "FENGYUN 1C DEB",
        "meta_object_id": "1999-025ABH",
        "meta_epoch": "2025-12-25T05:08:23.271072",
        "meta_mean_motion": 14.34015409,
        "meta_eccentricity": 0.0055061,
        "meta_inclination": 98.8077,
        "meta_ra_of_asc_node": 96.1475,
        "meta_arg_of_pericenter": 346.13,
        "meta_mean_anomaly": 71.6635,
        "meta_ephemeris_type": 0,
        "meta_classification_type": "U",
        "meta_norad_cat_id": 30346,
        "meta_element_set_no": 999,
        "meta_rev_at_epoch": 97592,
        "meta_bstar": 0.0019443,
        "meta_mean_motion_dot": 5.48e-05,
        "meta_mean_motion_ddot": 0,
        "tle_line1": "1 30346U 99025ABH 25359.21415823  .00005480  00000+0  19443-2 0  9990",
        "tle_line2": "2 30346  98.8077  96.1475 0055061 346.1300  71.6635 14.34015409975924"
      },
      "geometry": {
        "type": "Point",
        "coordinates": [
          88.522381903128,
          47.12207501449143
        ]
      }
    },
    {
      "type": "Feature",
      "properties": {
        "norad_id": 30347,
        "name": "FENGYUN 1C DEB",
        "group": "fengyun-1c-debris",
        "lat": 74.38025727060891,
        "lon": 35.48693710286497,
        "alt_km": 946.9321278244315,
        "timestamp": "2025-12-27T03:58:44.427448+00:00",
        "meta_object_name": "FENGYUN 1C DEB",
        "meta_object_id": "1999-025ABJ",
        "meta_epoch": "2025-12-26T18:55:28.900416",
        "meta_mean_motion": 13.92775094,
        "meta_eccentricity": 0.0149961,
        "meta_inclination": 98.3767,
        "meta_ra_of_asc_node": 183.3409,
        "meta_arg_of_pericenter": 354.7227,
        "meta_mean_anomaly": 16.3115,
        "meta_ephemeris_type": 0,
        "meta_classification_type": "U",
        "meta_norad_cat_id": 30347,
        "meta_element_set_no": 999,
        "meta_rev_at_epoch": 96156,
        "meta_bstar": 0.00018647,
        "meta_mean_motion_dot": 2.26e-06,
        "meta_mean_motion_ddot": 0,
        "tle_line1": "1 30347U 99025ABJ 25360.78852894  .00000226  00000+0  18647-3 0  9997",
        "tle_line2": "2 30347  98.3767 183.3409 0149961 354.7227  16.3115 13.92775094961568"
      },
      "geometry": {
        "type": "Point",
        "coordinates": [
          35.48693710286497,
          74.38025727060891
        ]
      }
    },
    {
      "type": "Feature",
      "properties": {
        "norad_id": 30348,
        "name": "FENGYUN 1C DEB",
        "group": "fengyun-1c-debris",
        "lat": 42.67233353604205,
        "lon": 88.03559067907952,
        "alt_km": 767.2551420603022,
        "timestamp": "2025-12-27T03:58:44.427457+00:00",
        "meta_object_name": "FENGYUN 1C DEB",
        "meta_object_id": "1999-025ABK",
        "meta_epoch": "2025-12-26T06:18:28.823904",
        "meta_mean_motion": 14.35238963,
        "meta_eccentricity": 0.0017325,
        "meta_inclination": 98.8628,
        "meta_ra_of_asc_node": 95.379,
        "meta_arg_of_pericenter": 332.0286,
        "meta_mean_anomaly": 88.3539,
        "meta_ephemeris_type": 0,
        "meta_classification_type": "U",
        "meta_norad_cat_id": 30348,
        "meta_element_set_no": 999,
        "meta_rev_at_epoch": 97728,
        "meta_bstar": 0.0019396,
        "meta_mean_motion_dot": 5.517e-05,
        "meta_mean_motion_ddot": 0,
        "tle_line1": "1 30348U 99025ABK 25360.26283361  .00005517  00000+0  19396-2 0  9997",
        "tle_line2": "2 30348  98.8628  95.3790 0017325 332.0286  88.3539 14.35238963977289"
      },
      "geometry": {
        "type": "Point",
        "coordinates": [
          88.03559067907952,
          42.67233353604205
        ]
      }
    },
    {
      "type": "Feature",
      "properties": {
        "norad_id": 30349,
        "name": "FENGYUN 1C DEB",
        "group": "fengyun-1c-debris",
        "lat": -33.25659476166793,
        "lon": 137.2934914563843,
        "alt_km": 891.1426391330397,
        "timestamp": "2025-12-27T03:58:44.427466+00:00",
        "meta_object_name": "FENGYUN 1C DEB",
        "meta_object_id": "1999-025ABL",
        "meta_epoch": "2025-12-26T10:30:39.851136",
        "meta_mean_motion": 14.1120867,
        "meta_eccentricity": 0.0088764,
        "meta_inclination": 98.586,
        "meta_ra_of_asc_node": 322.2835,
        "meta_arg_of_pericenter": 333.7821,
        "meta_mean_anomaly": 145.1293,
        "meta_ephemeris_type": 0,
        "meta_classification_type": "U",
        "meta_norad_cat_id": 30349,
        "meta_element_set_no": 999,
        "meta_rev_at_epoch": 96424,
        "meta_bstar": 0.0022509,
        "meta_mean_motion_dot": 4.172e-05,
        "meta_mean_motion_ddot": 0,
        "tle_line1": "1 30349U 99025ABL 25360.43796124  .00004172  00000+0  22509-2 0  9999",
        "tle_line2": "2 30349  98.5860 322.2835 0088764 333.7821 145.1293 14.11208670964242"
      },
      "geometry": {
        "type": "Point",
        "coordinates": [
          137.2934914563843,
          -33.25659476166793
        ]
      }
    }
  ]
}